{
  "type": "FeatureCollection",
  "crs": {
    "type": "name",
    "properties": {
      "name": "EPSG:5132"
    }
  },
  "features": [
    {
      "type": "Feature",
      "properties": {
        "proposal_id": "A0013-R1",
        "parent_proposal_id": "A0013",
        "revision": 1,
        "review_status": "accepted_with_reservation",
        "human_approved": true,
        "endpoint_pairing_human_approved": true,
        "geometry_revision_human_approved": true,
        "dataset_role": "review_only_not_training",
        "review_qualification": "more curvature than preferred, but acceptable",
        "review_event_id": "chat-008-e01"
      },
      "geometry": {
        "type": "LineString",
        "coordinates": [
          [
            126.77614067520017,
            36.30635258914244
          ],
          [
            126.77614343237572,
            36.306357230981575
          ],
          [
            126.77614637229429,
            36.306361857919136
          ],
          [
            126.77614947520685,
            36.306366471565546
          ],
          [
            126.77615272191565,
            36.30637107348626
          ],
          [
            126.77615609377412,
            36.30637566520179
          ],
          [
            126.77615957268695,
            36.3063802481877
          ],
          [
            126.77616314111003,
            36.3063848238746
          ],
          [
            126.77616678205051,
            36.30638939364816
          ],
          [
            126.77617047906674,
            36.30639395884908
          ],
          [
            126.7761742162683,
            36.30639852077314
          ],
          [
            126.77617797831599,
            36.306403080671146
          ],
          [
            126.77618175042186,
            36.306407639748976
          ],
          [
            126.77618551834917,
            36.30641219916754
          ],
          [
            126.7761892684124,
            36.30641676004281
          ],
          [
            126.77619298747726,
            36.306421323445804
          ],
          [
            126.77619666296071,
            36.30642589040259
          ],
          [
            126.77620028283091,
            36.306430461894294
          ],
          [
            126.77620383560726,
            36.306435038857096
          ],
          [
            126.77620731036036,
            36.306439622182204
          ],
          [
            126.77621069671207,
            36.3064442127159
          ],
          [
            126.77621398483548,
            36.30644881125951
          ],
          [
            126.77621716545485,
            36.306453418569404
          ],
          [
            126.77622022984573,
            36.306458035357025
          ],
          [
            126.77622316983489,
            36.30646266228883
          ],
          [
            126.77622597780028,
            36.30646729998636
          ],
          [
            126.77622864667111,
            36.3064719490262
          ],
          [
            126.77623116992783,
            36.30647660993996
          ],
          [
            126.77623354160207,
            36.30648128321434
          ],
          [
            126.77623575627673,
            36.30648596929107
          ],
          [
            126.77623780908593,
            36.30649066856692
          ],
          [
            126.77623969571499,
            36.306495381393745
          ],
          [
            126.77624141240048,
            36.30650010807841
          ],
          [
            126.7762429559302,
            36.30650484888287
          ],
          [
            126.77624432364316,
            36.30650960402409
          ],
          [
            126.77624551342959,
            36.306514373674126
          ],
          [
            126.77624652373096,
            36.306519157960054
          ],
          [
            126.77624735353999,
            36.30652395696403
          ],
          [
            126.77624800240058,
            36.306528770723226
          ],
          [
            126.7762484704079,
            36.30653359922989
          ],
          [
            126.77624875820828,
            36.30653844243132
          ],
          [
            126.77624886699938,
            36.30654330022985
          ],
          [
            126.77624879852998,
            36.30654817248288
          ],
          [
            126.77624855510017,
            36.306553059002844
          ],
          [
            126.7762481395612,
            36.30655795955725
          ],
          [
            126.77624755531559,
            36.30656287386865
          ],
          [
            126.77624680631709,
            36.30656780161463
          ],
          [
            126.77624589707062,
            36.30657274242783
          ],
          [
            126.77624483263241,
            36.30657769589597
          ],
          [
            126.77624361860984,
            36.306582661561784
          ],
          [
            126.77624226116157,
            36.306587638923084
          ],
          [
            126.77624076699745,
            36.306592627432714
          ],
          [
            126.77623914337858,
            36.30659762649858
          ],
          [
            126.77623739811726,
            36.306602635483635
          ],
          [
            126.77623553957706,
            36.30660765370589
          ],
          [
            126.77623357667275,
            36.30661268043839
          ],
          [
            126.7762315188703,
            36.306617714909244
          ],
          [
            126.77622937618696,
            36.306622756301614
          ],
          [
            126.77622715919118,
            36.306627803753706
          ],
          [
            126.77622487900263,
            36.306632856358775
          ],
          [
            126.77622254729219,
            36.30663791316514
          ],
          [
            126.77622017628202,
            36.30664297317615
          ],
          [
            126.77621777874548,
            36.30664803535023
          ],
          [
            126.77621536800712,
            36.30665309860083
          ],
          [
            126.77621295794276,
            36.30665816179647
          ],
          [
            126.77621056297946,
            36.306663223760715
          ],
          [
            126.77620819809545,
            36.306668283272174
          ],
          [
            126.77620587882024,
            36.306673339064524
          ],
          [
            126.77620362123452,
            36.30667838982647
          ],
          [
            126.77620144197024,
            36.30668343420179
          ],
          [
            126.77619935821059,
            36.3066884707893
          ],
          [
            126.77619738768993,
            36.30669349814286
          ],
          [
            126.7761955486939,
            36.306698514771405
          ],
          [
            126.77619386005934,
            36.3067035191389
          ],
          [
            126.77619234117432,
            36.30670850966437
          ],
          [
            126.77619101197814,
            36.30671348472188
          ],
          [
            126.77618989296134,
            36.306718442640566
          ],
          [
            126.77618900516563,
            36.3067233817046
          ],
          [
            126.77618837018404,
            36.3067283001532
          ],
          [
            126.77618801016075,
            36.30673319618065
          ],
          [
            126.77618794779117,
            36.30673806793627
          ]
        ]
      }
    }
  ]
}
