{
  "type": "FeatureCollection",
  "name": "contour_completion_candidates_174-cheongyang-labels",
  "crs": {
    "type": "name",
    "properties": {
      "name": "urn:ogc:def:crs:EPSG::5132"
    }
  },
  "features": [
    {
      "type": "Feature",
      "properties": {
        "completion_id": "contour-link-1",
        "tile_id": "174-cheongyang-labels",
        "sheet_id": "174-cheongyang",
        "split": "development",
        "proposal_kind": "contour_completion_review_only",
        "backend": "ridge_endpoints_ink_completion_v1",
        "ink_upstream_commit": "7960acddb4e82855e2088fdfdd2244799b63775c",
        "mode": "ink_path",
        "first_proposal_id": "visible-line-429",
        "second_proposal_id": "visible-line-449",
        "first_review_status": "unreviewed",
        "second_review_status": "unreviewed",
        "anchor_scope": "all",
        "direct_gap_px": 5.0,
        "path_length_px": 5.243,
        "tangent_error_deg": 4.139,
        "missing_fraction": 0.5,
        "maximum_missing_run_px": 4,
        "ink_support_fraction": 1.0,
        "junction_pixels": 0,
        "score": 0.9387,
        "review_status": "unreviewed",
        "auto_apply": false
      },
      "geometry": {
        "type": "LineString",
        "coordinates": [
          [
            126.81782326573628,
            36.44992587861666
          ],
          [
            126.81787048680624,
            36.44992587861666
          ],
          [
            126.81801215001616,
            36.449810748042545
          ]
        ]
      }
    },
    {
      "type": "Feature",
      "properties": {
        "completion_id": "contour-link-2",
        "tile_id": "174-cheongyang-labels",
        "sheet_id": "174-cheongyang",
        "split": "development",
        "proposal_kind": "contour_completion_review_only",
        "backend": "ridge_endpoints_ink_completion_v1",
        "ink_upstream_commit": "7960acddb4e82855e2088fdfdd2244799b63775c",
        "mode": "ink_path",
        "first_proposal_id": "visible-line-525",
        "second_proposal_id": "visible-line-535",
        "first_review_status": "unreviewed",
        "second_review_status": "unreviewed",
        "anchor_scope": "all",
        "direct_gap_px": 9.22,
        "path_length_px": 9.485,
        "tangent_error_deg": 8.384,
        "missing_fraction": 0.7143,
        "maximum_missing_run_px": 10,
        "ink_support_fraction": 1.0,
        "junction_pixels": 0,
        "score": 0.9175,
        "review_status": "unreviewed",
        "auto_apply": false
      },
      "geometry": {
        "type": "LineString",
        "coordinates": [
          [
            126.82736192187052,
            36.443401812750366
          ],
          [
            126.82740914294048,
            36.443401812750366
          ],
          [
            126.82769246936031,
            36.44317155160214
          ]
        ]
      }
    },
    {
      "type": "Feature",
      "properties": {
        "completion_id": "contour-link-3",
        "tile_id": "174-cheongyang-labels",
        "sheet_id": "174-cheongyang",
        "split": "development",
        "proposal_kind": "contour_completion_review_only",
        "backend": "ridge_endpoints_ink_completion_v1",
        "ink_upstream_commit": "7960acddb4e82855e2088fdfdd2244799b63775c",
        "mode": "ink_path",
        "first_proposal_id": "visible-line-127",
        "second_proposal_id": "visible-line-151",
        "first_review_status": "unreviewed",
        "second_review_status": "unreviewed",
        "anchor_scope": "all",
        "direct_gap_px": 6.403,
        "path_length_px": 6.657,
        "tangent_error_deg": 11.61,
        "missing_fraction": 0.5556,
        "maximum_missing_run_px": 5,
        "ink_support_fraction": 1.0,
        "junction_pixels": 2,
        "score": 0.9072,
        "review_status": "unreviewed",
        "auto_apply": false
      },
      "geometry": {
        "type": "LineString",
        "coordinates": [
          [
            126.79581824712957,
            36.43814418319929
          ],
          [
            126.79605435247943,
            36.43829769063144
          ]
        ]
      }
    },
    {
      "type": "Feature",
      "properties": {
        "completion_id": "contour-link-4",
        "tile_id": "174-cheongyang-labels",
        "sheet_id": "174-cheongyang",
        "split": "development",
        "proposal_kind": "contour_completion_review_only",
        "backend": "ridge_endpoints_ink_completion_v1",
        "ink_upstream_commit": "7960acddb4e82855e2088fdfdd2244799b63775c",
        "mode": "ink_path",
        "first_proposal_id": "visible-line-119",
        "second_proposal_id": "visible-line-120",
        "first_review_status": "unreviewed",
        "second_review_status": "unreviewed",
        "anchor_scope": "all",
        "direct_gap_px": 5.099,
        "path_length_px": 6.0,
        "tangent_error_deg": 13.635,
        "missing_fraction": 0.4286,
        "maximum_missing_run_px": 3,
        "ink_support_fraction": 1.0,
        "junction_pixels": 0,
        "score": 0.9016,
        "review_status": "unreviewed",
        "auto_apply": false
      },
      "geometry": {
        "type": "LineString",
        "coordinates": [
          [
            126.79369329898086,
            36.42927912899274
          ],
          [
            126.79369329898086,
            36.42947101328292
          ],
          [
            126.79374052005083,
            36.42947101328292
          ]
        ]
      }
    },
    {
      "type": "Feature",
      "properties": {
        "completion_id": "contour-link-5",
        "tile_id": "174-cheongyang-labels",
        "sheet_id": "174-cheongyang",
        "split": "development",
        "proposal_kind": "contour_completion_review_only",
        "backend": "ridge_endpoints_ink_completion_v1",
        "ink_upstream_commit": "7960acddb4e82855e2088fdfdd2244799b63775c",
        "mode": "ink_path",
        "first_proposal_id": "visible-line-189",
        "second_proposal_id": "visible-line-214",
        "first_review_status": "unreviewed",
        "second_review_status": "unreviewed",
        "anchor_scope": "all",
        "direct_gap_px": 4.472,
        "path_length_px": 5.414,
        "tangent_error_deg": 16.26,
        "missing_fraction": 0.4286,
        "maximum_missing_run_px": 3,
        "ink_support_fraction": 1.0,
        "junction_pixels": 1,
        "score": 0.8981,
        "review_status": "unreviewed",
        "auto_apply": false
      },
      "geometry": {
        "type": "LineString",
        "coordinates": [
          [
            126.80077645947658,
            36.45575916103829
          ],
          [
            126.80077645947658,
            36.45572078418025
          ],
          [
            126.8009181226865,
            36.45572078418025
          ],
          [
            126.80096534375646,
            36.45568240732221
          ]
        ]
      }
    },
    {
      "type": "Feature",
      "properties": {
        "completion_id": "contour-link-6",
        "tile_id": "174-cheongyang-labels",
        "sheet_id": "174-cheongyang",
        "split": "development",
        "proposal_kind": "contour_completion_review_only",
        "backend": "ridge_endpoints_ink_completion_v1",
        "ink_upstream_commit": "7960acddb4e82855e2088fdfdd2244799b63775c",
        "mode": "ink_path",
        "first_proposal_id": "visible-line-313",
        "second_proposal_id": "visible-line-363",
        "first_review_status": "unreviewed",
        "second_review_status": "unreviewed",
        "anchor_scope": "all",
        "direct_gap_px": 9.0,
        "path_length_px": 9.0,
        "tangent_error_deg": 16.699,
        "missing_fraction": 0.6,
        "maximum_missing_run_px": 6,
        "ink_support_fraction": 1.0,
        "junction_pixels": 0,
        "score": 0.8836,
        "review_status": "unreviewed",
        "auto_apply": false
      },
      "geometry": {
        "type": "LineString",
        "coordinates": [
          [
            126.81097621059041,
            36.43557293371081
          ],
          [
            126.81097621059041,
            36.43591832543314
          ]
        ]
      }
    },
    {
      "type": "Feature",
      "properties": {
        "completion_id": "contour-link-7",
        "tile_id": "174-cheongyang-labels",
        "sheet_id": "174-cheongyang",
        "split": "development",
        "proposal_kind": "contour_completion_review_only",
        "backend": "ridge_endpoints_ink_completion_v1",
        "ink_upstream_commit": "7960acddb4e82855e2088fdfdd2244799b63775c",
        "mode": "ink_path",
        "first_proposal_id": "visible-line-322",
        "second_proposal_id": "visible-line-357",
        "first_review_status": "unreviewed",
        "second_review_status": "unreviewed",
        "anchor_scope": "all",
        "direct_gap_px": 13.342,
        "path_length_px": 14.243,
        "tangent_error_deg": 28.68,
        "missing_fraction": 0.7333,
        "maximum_missing_run_px": 11,
        "ink_support_fraction": 1.0,
        "junction_pixels": 0,
        "score": 0.8401,
        "review_status": "unreviewed",
        "auto_apply": false
      },
      "geometry": {
        "type": "LineString",
        "coordinates": [
          [
            126.81036233668078,
            36.455989422186505
          ],
          [
            126.81036233668078,
            36.45606617590258
          ],
          [
            126.81040955775076,
            36.45610455276062
          ],
          [
            126.81040955775076,
            36.45633481390884
          ],
          [
            126.8105039998907,
            36.45648832134099
          ]
        ]
      }
    },
    {
      "type": "Feature",
      "properties": {
        "completion_id": "contour-link-8",
        "tile_id": "174-cheongyang-labels",
        "sheet_id": "174-cheongyang",
        "split": "development",
        "proposal_kind": "contour_completion_review_only",
        "backend": "ridge_endpoints_ink_completion_v1",
        "ink_upstream_commit": "7960acddb4e82855e2088fdfdd2244799b63775c",
        "mode": "ink_path",
        "first_proposal_id": "visible-line-377",
        "second_proposal_id": "visible-line-424",
        "first_review_status": "unreviewed",
        "second_review_status": "unreviewed",
        "anchor_scope": "all",
        "direct_gap_px": 32.016,
        "path_length_px": 35.142,
        "tangent_error_deg": 19.234,
        "missing_fraction": 0.8919,
        "maximum_missing_run_px": 33,
        "ink_support_fraction": 1.0,
        "junction_pixels": 0,
        "score": 0.8323,
        "review_status": "unreviewed",
        "auto_apply": false
      },
      "geometry": {
        "type": "LineString",
        "coordinates": [
          [
            126.81499000153799,
            36.42801269267752
          ],
          [
            126.81517888581787,
            36.42801269267752
          ],
          [
            126.81522610688785,
            36.42797431581948
          ],
          [
            126.81536777009777,
            36.42797431581948
          ],
          [
            126.81541499116773,
            36.42801269267752
          ],
          [
            126.81565109651758,
            36.42801269267752
          ],
          [
            126.81631219149719,
            36.42831970754181
          ],
          [
            126.8164538547071,
            36.42831970754181
          ]
        ]
      }
    },
    {
      "type": "Feature",
      "properties": {
        "completion_id": "contour-link-9",
        "tile_id": "174-cheongyang-labels",
        "sheet_id": "174-cheongyang",
        "split": "development",
        "proposal_kind": "contour_completion_review_only",
        "backend": "ridge_endpoints_ink_completion_v1",
        "ink_upstream_commit": "7960acddb4e82855e2088fdfdd2244799b63775c",
        "mode": "ink_path",
        "first_proposal_id": "visible-line-164",
        "second_proposal_id": "visible-line-198",
        "first_review_status": "unreviewed",
        "second_review_status": "unreviewed",
        "anchor_scope": "all",
        "direct_gap_px": 36.069,
        "path_length_px": 39.87,
        "tangent_error_deg": 21.498,
        "missing_fraction": 0.907,
        "maximum_missing_run_px": 39,
        "ink_support_fraction": 1.0,
        "junction_pixels": 0,
        "score": 0.8166,
        "review_status": "unreviewed",
        "auto_apply": false
      },
      "geometry": {
        "type": "LineString",
        "coordinates": [
          [
            126.79822652169811,
            36.44125270870029
          ],
          [
            126.79827374276809,
            36.44132946241636
          ],
          [
            126.79865151132786,
            36.44163647728066
          ],
          [
            126.79869873239784,
            36.44163647728066
          ],
          [
            126.79884039560774,
            36.44175160785477
          ],
          [
            126.79884039560774,
            36.44182836157085
          ],
          [
            126.7989348377477,
            36.44190511528692
          ],
          [
            126.7990765009576,
            36.44190511528692
          ],
          [
            126.79912372202757,
            36.44194349214496
          ],
          [
            126.79912372202757,
            36.44205862271907
          ],
          [
            126.79926538523749,
            36.442173753293176
          ],
          [
            126.79935982737743,
            36.442173753293176
          ],
          [
            126.7994070484474,
            36.442250507009256
          ]
        ]
      }
    },
    {
      "type": "Feature",
      "properties": {
        "completion_id": "contour-link-10",
        "tile_id": "174-cheongyang-labels",
        "sheet_id": "174-cheongyang",
        "split": "development",
        "proposal_kind": "contour_completion_review_only",
        "backend": "ridge_endpoints_ink_completion_v1",
        "ink_upstream_commit": "7960acddb4e82855e2088fdfdd2244799b63775c",
        "mode": "hermite_occlusion",
        "first_proposal_id": "visible-line-185",
        "second_proposal_id": "visible-line-221",
        "first_review_status": "unreviewed",
        "second_review_status": "unreviewed",
        "anchor_scope": "all",
        "direct_gap_px": 19.105,
        "path_length_px": 19.108,
        "tangent_error_deg": 2.828,
        "missing_fraction": 0.913,
        "maximum_missing_run_px": 21,
        "ink_support_fraction": 1.0,
        "junction_pixels": 0,
        "score": 0.7681,
        "review_status": "unreviewed",
        "auto_apply": false
      },
      "geometry": {
        "type": "LineString",
        "coordinates": [
          [
            126.80096534375646,
            36.45487649330343
          ],
          [
            126.80157921766609,
            36.454339217290915
          ]
        ]
      }
    },
    {
      "type": "Feature",
      "properties": {
        "completion_id": "contour-link-11",
        "tile_id": "174-cheongyang-labels",
        "sheet_id": "174-cheongyang",
        "split": "development",
        "proposal_kind": "contour_completion_review_only",
        "backend": "ridge_endpoints_ink_completion_v1",
        "ink_upstream_commit": "7960acddb4e82855e2088fdfdd2244799b63775c",
        "mode": "hermite_occlusion",
        "first_proposal_id": "visible-line-113",
        "second_proposal_id": "visible-line-48",
        "first_review_status": "unreviewed",
        "second_review_status": "unreviewed",
        "anchor_scope": "all",
        "direct_gap_px": 21.19,
        "path_length_px": 21.195,
        "tangent_error_deg": 2.511,
        "missing_fraction": 0.8261,
        "maximum_missing_run_px": 19,
        "ink_support_fraction": 0.7391,
        "junction_pixels": 0,
        "score": 0.7455,
        "review_status": "unreviewed",
        "auto_apply": false
      },
      "geometry": {
        "type": "LineString",
        "coordinates": [
          [
            126.7921350036718,
            36.44723949855407
          ],
          [
            126.79119058227236,
            36.44697086054781
          ]
        ]
      }
    },
    {
      "type": "Feature",
      "properties": {
        "completion_id": "contour-link-12",
        "tile_id": "174-cheongyang-labels",
        "sheet_id": "174-cheongyang",
        "split": "development",
        "proposal_kind": "contour_completion_review_only",
        "backend": "ridge_endpoints_ink_completion_v1",
        "ink_upstream_commit": "7960acddb4e82855e2088fdfdd2244799b63775c",
        "mode": "hermite_occlusion",
        "first_proposal_id": "visible-line-354",
        "second_proposal_id": "visible-line-434",
        "first_review_status": "unreviewed",
        "second_review_status": "unreviewed",
        "anchor_scope": "all",
        "direct_gap_px": 11.402,
        "path_length_px": 11.429,
        "tangent_error_deg": 10.677,
        "missing_fraction": 0.4,
        "maximum_missing_run_px": 6,
        "ink_support_fraction": 1.0,
        "junction_pixels": 5,
        "score": 0.719,
        "review_status": "unreviewed",
        "auto_apply": false
      },
      "geometry": {
        "type": "LineString",
        "coordinates": [
          [
            126.81583998079748,
            36.45092367692562
          ],
          [
            126.81635941256717,
            36.45103880749973
          ]
        ]
      }
    },
    {
      "type": "Feature",
      "properties": {
        "completion_id": "contour-link-13",
        "tile_id": "174-cheongyang-labels",
        "sheet_id": "174-cheongyang",
        "split": "development",
        "proposal_kind": "contour_completion_review_only",
        "backend": "ridge_endpoints_ink_completion_v1",
        "ink_upstream_commit": "7960acddb4e82855e2088fdfdd2244799b63775c",
        "mode": "hermite_occlusion",
        "first_proposal_id": "visible-line-113",
        "second_proposal_id": "visible-line-223",
        "first_review_status": "unreviewed",
        "second_review_status": "unreviewed",
        "anchor_scope": "all",
        "direct_gap_px": 52.612,
        "path_length_px": 52.64,
        "tangent_error_deg": 4.612,
        "missing_fraction": 0.5085,
        "maximum_missing_run_px": 21,
        "ink_support_fraction": 0.8644,
        "junction_pixels": 0,
        "score": 0.7029,
        "review_status": "unreviewed",
        "auto_apply": false
      },
      "geometry": {
        "type": "LineString",
        "coordinates": [
          [
            126.79926538523749,
            36.44911996459788
          ],
          [
            126.80013679377305,
            36.44925704181185
          ],
          [
            126.801720880876,
            36.449426979462174
          ]
        ]
      }
    },
    {
      "type": "Feature",
      "properties": {
        "completion_id": "contour-link-14",
        "tile_id": "174-cheongyang-labels",
        "sheet_id": "174-cheongyang",
        "split": "development",
        "proposal_kind": "contour_completion_review_only",
        "backend": "ridge_endpoints_ink_completion_v1",
        "ink_upstream_commit": "7960acddb4e82855e2088fdfdd2244799b63775c",
        "mode": "hermite_occlusion",
        "first_proposal_id": "visible-line-198",
        "second_proposal_id": "visible-line-223",
        "first_review_status": "unreviewed",
        "second_review_status": "unreviewed",
        "anchor_scope": "all",
        "direct_gap_px": 53.038,
        "path_length_px": 53.07,
        "tangent_error_deg": 4.141,
        "missing_fraction": 0.5714,
        "maximum_missing_run_px": 22,
        "ink_support_fraction": 0.5714,
        "junction_pixels": 0,
        "score": 0.6872,
        "review_status": "unreviewed",
        "auto_apply": false
      },
      "geometry": {
        "type": "LineString",
        "coordinates": [
          [
            126.80337361832501,
            36.44677897625762
          ],
          [
            126.80338989106903,
            36.44794918570416
          ],
          [
            126.80346806046495,
            36.448812949733586
          ]
        ]
      }
    },
    {
      "type": "Feature",
      "properties": {
        "completion_id": "contour-link-15",
        "tile_id": "174-cheongyang-labels",
        "sheet_id": "174-cheongyang",
        "split": "development",
        "proposal_kind": "contour_completion_review_only",
        "backend": "ridge_endpoints_ink_completion_v1",
        "ink_upstream_commit": "7960acddb4e82855e2088fdfdd2244799b63775c",
        "mode": "hermite_occlusion",
        "first_proposal_id": "visible-line-68",
        "second_proposal_id": "visible-line-86",
        "first_review_status": "unreviewed",
        "second_review_status": "unreviewed",
        "anchor_scope": "all",
        "direct_gap_px": 34.482,
        "path_length_px": 34.709,
        "tangent_error_deg": 15.461,
        "missing_fraction": 0.9231,
        "maximum_missing_run_px": 36,
        "ink_support_fraction": 0.8205,
        "junction_pixels": 0,
        "score": 0.6432,
        "review_status": "unreviewed",
        "auto_apply": false
      },
      "geometry": {
        "type": "LineString",
        "coordinates": [
          [
            126.78741289667465,
            36.434843773408105
          ],
          [
            126.78783260548677,
            36.43557819089365
          ],
          [
            126.78821565486416,
            36.435995079149215
          ]
        ]
      }
    },
    {
      "type": "Feature",
      "properties": {
        "completion_id": "contour-link-16",
        "tile_id": "174-cheongyang-labels",
        "sheet_id": "174-cheongyang",
        "split": "development",
        "proposal_kind": "contour_completion_review_only",
        "backend": "ridge_endpoints_ink_completion_v1",
        "ink_upstream_commit": "7960acddb4e82855e2088fdfdd2244799b63775c",
        "mode": "hermite_occlusion",
        "first_proposal_id": "visible-line-115",
        "second_proposal_id": "visible-line-86",
        "first_review_status": "unreviewed",
        "second_review_status": "unreviewed",
        "anchor_scope": "all",
        "direct_gap_px": 42.942,
        "path_length_px": 43.273,
        "tangent_error_deg": 17.819,
        "missing_fraction": 0.6604,
        "maximum_missing_run_px": 21,
        "ink_support_fraction": 0.6038,
        "junction_pixels": 0,
        "score": 0.6073,
        "review_status": "unreviewed",
        "auto_apply": false
      },
      "geometry": {
        "type": "LineString",
        "coordinates": [
          [
            126.79265443544148,
            36.438105806341255
          ],
          [
            126.79218432099687,
            36.437973164677864
          ],
          [
            126.79128900163622,
            36.43749369041861
          ],
          [
            126.79086003478257,
            36.437338269180515
          ]
        ]
      }
    },
    {
      "type": "Feature",
      "properties": {
        "completion_id": "contour-link-17",
        "tile_id": "174-cheongyang-labels",
        "sheet_id": "174-cheongyang",
        "split": "development",
        "proposal_kind": "contour_completion_review_only",
        "backend": "ridge_endpoints_ink_completion_v1",
        "ink_upstream_commit": "7960acddb4e82855e2088fdfdd2244799b63775c",
        "mode": "hermite_occlusion",
        "first_proposal_id": "visible-line-197",
        "second_proposal_id": "visible-line-221",
        "first_review_status": "unreviewed",
        "second_review_status": "unreviewed",
        "anchor_scope": "all",
        "direct_gap_px": 60.033,
        "path_length_px": 60.436,
        "tangent_error_deg": 17.777,
        "missing_fraction": 0.746,
        "maximum_missing_run_px": 29,
        "ink_support_fraction": 0.4286,
        "junction_pixels": 0,
        "score": 0.5829,
        "review_status": "unreviewed",
        "auto_apply": false
      },
      "geometry": {
        "type": "LineString",
        "coordinates": [
          [
            126.80342083939497,
            36.45011776290684
          ],
          [
            126.80340553187422,
            36.45056449648984
          ],
          [
            126.80347979461769,
            36.451743003856556
          ],
          [
            126.80343113873924,
            36.452106381696346
          ],
          [
            126.80332639725503,
            36.452420374389064
          ]
        ]
      }
    }
  ]
}